start=new Date('2023-05-10T00:00:00.000Z').valueOf();
sats=[{"MEAN_ANOMALY":"278.2798","SEMIMAJOR_AXIS":"6925.417","MEAN_MOTION_DOT":"0.00026225","TIME_SYSTEM":"UTC","BSTAR":"0.00177400000000","MEAN_ELEMENT_THEORY":"SGP4","CENTER_NAME":"EARTH","RCS_SIZE":"LARGE","EPHEMERIS_TYPE":"0","OBJECT_ID":"2020-062AM","FILE":"3904305","ECCENTRICITY":"0.00011760","OBJECT_TYPE":"PAYLOAD","ELEMENT_SET_NO":"999","CLASSIFICATION_TYPE":"U","INCLINATION":"53.0537","TLE_LINE2":"2 46360  53.0537 302.1001 0001176  81.8324 278.2798 15.06377828148803","PERIAPSIS":"546.467","OBJECT_NAME":"STARLINK-1713","GP_ID":"231470985","TLE_LINE1":"1 46360U 20062AM  23128.75651631  .00026225  00000-0  17740-2 0  9997","EPOCH":"2023-05-08T18:09:23.009184","PERIOD":"95.594","LAUNCH_DATE":"2020-09-03","SITE":"AFETR","DECAY_DATE":null,"REV_AT_EPOCH":"14880","ARG_OF_PERICENTER":"81.8324","MEAN_MOTION_DDOT":"0.0000000000000","APOAPSIS":"548.096","REF_FRAME":"TEME","MEAN_MOTION":"15.06377828","RA_OF_ASC_NODE":"302.1001","COUNTRY_CODE":"US","NORAD_CAT_ID":"46360"},{"MEAN_MOTION_DOT":"0.00003410","SEMIMAJOR_AXIS":"6925.341","MEAN_ANOMALY":"274.4690","RCS_SIZE":"LARGE","CENTER_NAME":"EARTH","TIME_SYSTEM":"UTC","BSTAR":"0.00024771000000","MEAN_ELEMENT_THEORY":"SGP4","FILE":"3904343","ECCENTRICITY":"0.00015000","OBJECT_ID":"2020-062AN","EPHEMERIS_TYPE":"0","TLE_LINE2":"2 46361  53.0552 300.1448 0001500  85.6471 274.4690 15.06402351149035","PERIAPSIS":"546.168","ELEMENT_SET_NO":"999","INCLINATION":"53.0552","CLASSIFICATION_TYPE":"U","OBJECT_TYPE":"PAYLOAD","GP_ID":"231479230","TLE_LINE1":"1 46361U 20062AN  23129.19051698  .00003410  00000-0  24771-3 0  9998","OBJECT_NAME":"STARLINK-1722","LAUNCH_DATE":"2020-09-03","EPOCH":"2023-05-09T04:34:20.667072","PERIOD":"95.592","APOAPSIS":"548.245","MEAN_MOTION_DDOT":"0.0000000000000","ARG_OF_PERICENTER":"85.6471","SITE":"AFETR","REV_AT_EPOCH":"14903","DECAY_DATE":null,"NORAD_CAT_ID":"46361","RA_OF_ASC_NODE":"300.1448","COUNTRY_CODE":"US","REF_FRAME":"TEME","MEAN_MOTION":"15.06402351"},{"EPHEMERIS_TYPE":"0","FILE":"3904305","ECCENTRICITY":"0.00012340","OBJECT_ID":"2020-062AP","OBJECT_TYPE":"PAYLOAD","TLE_LINE2":"2 46362  53.0547 302.0322 0001234  83.8402 276.2727 15.06394177148801","PERIAPSIS":"546.377","ELEMENT_SET_NO":"999","INCLINATION":"53.0547","CLASSIFICATION_TYPE":"U","MEAN_ANOMALY":"276.2727","MEAN_MOTION_DOT":"0.00018353","SEMIMAJOR_AXIS":"6925.366","CENTER_NAME":"EARTH","TIME_SYSTEM":"UTC","BSTAR":"0.00124800000000","MEAN_ELEMENT_THEORY":"SGP4","RCS_SIZE":"LARGE","ARG_OF_PERICENTER":"83.8402","SITE":"AFETR","DECAY_DATE":null,"REV_AT_EPOCH":"14880","APOAPSIS":"548.086","MEAN_MOTION_DDOT":"0.0000000000000","REF_FRAME":"TEME","MEAN_MOTION":"15.06394177","NORAD_CAT_ID":"46362","RA_OF_ASC_NODE":"302.0322","COUNTRY_CODE":"US","OBJECT_NAME":"STARLINK-1726","TLE_LINE1":"1 46362U 20062AP  23128.77125324  .00018353  00000-0  12480-2 0  9995","GP_ID":"231471986","EPOCH":"2023-05-08T18:30:36.279936","PERIOD":"95.593","LAUNCH_DATE":"2020-09-03"},{"MEAN_ANOMALY":"269.9526","SEMIMAJOR_AXIS":"6925.438","MEAN_MOTION_DOT":"0.00025670","BSTAR":"0.00173730000000","TIME_SYSTEM":"UTC","MEAN_ELEMENT_THEORY":"SGP4","CENTER_NAME":"EARTH","RCS_SIZE":"LARGE","EPHEMERIS_TYPE":"0","ECCENTRICITY":"0.00012490","FILE":"3904305","OBJECT_ID":"2020-062AQ","OBJECT_TYPE":"PAYLOAD","ELEMENT_SET_NO":"999","INCLINATION":"53.0543","CLASSIFICATION_TYPE":"U","TLE_LINE2":"2 46363  53.0543 302.0646 0001249  90.1606 269.9526 15.06370927148803","PERIAPSIS":"546.438","OBJECT_NAME":"STARLINK-1739","GP_ID":"231471733","TLE_LINE1":"1 46363U 20062AQ  23128.76293750  .00025670  00000-0  17373-2 0  9990","EPOCH":"2023-05-08T18:18:37.800000","PERIOD":"95.594","LAUNCH_DATE":"2020-09-03","SITE":"AFETR","DECAY_DATE":null,"REV_AT_EPOCH":"14880","ARG_OF_PERICENTER":"90.1606","MEAN_MOTION_DDOT":"0.0000000000000","APOAPSIS":"548.168","REF_FRAME":"TEME","MEAN_MOTION":"15.06370927","RA_OF_ASC_NODE":"302.0646","COUNTRY_CODE":"US","NORAD_CAT_ID":"46363"},{"OBJECT_TYPE":"PAYLOAD","ELEMENT_SET_NO":"999","INCLINATION":"53.0543","CLASSIFICATION_TYPE":"U","TLE_LINE2":"2 46364  53.0543 278.9949 0001292  93.3542 266.7594 15.06417596149190","PERIAPSIS":"546.265","EPHEMERIS_TYPE":"0","OBJECT_ID":"2020-062AR","FILE":"3904553","ECCENTRICITY":"0.00012920","BSTAR":"0.00141200000000","TIME_SYSTEM":"UTC","MEAN_ELEMENT_THEORY":"SGP4","CENTER_NAME":"EARTH","RCS_SIZE":"LARGE","MEAN_ANOMALY":"266.7594","SEMIMAJOR_AXIS":"6925.295","MEAN_MOTION_DOT":"0.00020823","REF_FRAME":"TEME","MEAN_MOTION":"15.06417596","COUNTRY_CODE":"US","RA_OF_ASC_NODE":"278.9949","NORAD_CAT_ID":"46364","SITE":"AFETR","DECAY_DATE":null,"REV_AT_EPOCH":"14919","ARG_OF_PERICENTER":"93.3542","APOAPSIS":"548.054","MEAN_MOTION_DDOT":"0.0000000000000","EPOCH":"2023-05-09T13:29:12.719328","PERIOD":"95.591","LAUNCH_DATE":"2020-09-03","OBJECT_NAME":"STARLINK-1763","GP_ID":"231503500","TLE_LINE1":"1 46364U 20062AR  23129.56195277  .00020823  00000-0  14120-2 0  9997"},{"SEMIMAJOR_AXIS":"6925.284","MEAN_MOTION_DOT":"0.00029062","MEAN_ANOMALY":"294.1815","RCS_SIZE":"LARGE","TIME_SYSTEM":"UTC","BSTAR":"0.00196080000000","MEAN_ELEMENT_THEORY":"SGP4","CENTER_NAME":"EARTH","FILE":"3904553","OBJECT_ID":"2020-062AS","ECCENTRICITY":"0.00007690","EPHEMERIS_TYPE":"0","ELEMENT_SET_NO":"999","CLASSIFICATION_TYPE":"U","INCLINATION":"53.0537","TLE_LINE2":"2 46365  53.0537 298.5925 0000769  65.9255 294.1815 15.06420912148916","PERIAPSIS":"546.617","OBJECT_TYPE":"PAYLOAD","TLE_LINE1":"1 46365U 20062AS  23129.53793222  .00029062  00000-0  19608-2 0  9999","GP_ID":"231503251","OBJECT_NAME":"STARLINK-1550","LAUNCH_DATE":"2020-09-03","EPOCH":"2023-05-09T12:54:37.343808","PERIOD":"95.591","APOAPSIS":"547.682","MEAN_MOTION_DDOT":"0.0000000000000","SITE":"AFETR","DECAY_DATE":null,"REV_AT_EPOCH":"14891","ARG_OF_PERICENTER":"65.9255","RA_OF_ASC_NODE":"298.5925","COUNTRY_CODE":"US","NORAD_CAT_ID":"46365","REF_FRAME":"TEME","MEAN_MOTION":"15.06420912"},{"EPHEMERIS_TYPE":"0","OBJECT_ID":"2020-062AT","FILE":"3904553","ECCENTRICITY":"0.00013860","OBJECT_TYPE":"PAYLOAD","PERIAPSIS":"546.265","TLE_LINE2":"2 46366  53.0533 300.1309 0001386  81.5780 278.5366 15.06396206148861","INCLINATION":"53.0533","CLASSIFICATION_TYPE":"U","ELEMENT_SET_NO":"999","MEAN_ANOMALY":"278.5366","MEAN_MOTION_DOT":"0.00030167","SEMIMAJOR_AXIS":"6925.360","CENTER_NAME":"EARTH","MEAN_ELEMENT_THEORY":"SGP4","BSTAR":"0.00203570000000","TIME_SYSTEM":"UTC","RCS_SIZE":"LARGE","ARG_OF_PERICENTER":"81.5780","REV_AT_EPOCH":"14886","DECAY_DATE":null,"SITE":"AFETR","MEAN_MOTION_DDOT":"0.0000000000000","APOAPSIS":"548.185","MEAN_MOTION":"15.06396206","REF_FRAME":"TEME","NORAD_CAT_ID":"46366","RA_OF_ASC_NODE":"300.1309","COUNTRY_CODE":"US","OBJECT_NAME":"STARLINK-1651","GP_ID":"231504502","TLE_LINE1":"1 46366U 20062AT  23129.19514159  .00030167  00000-0  20357-2 0  9993","PERIOD":"95.592","EPOCH":"2023-05-09T04:41:00.233376","LAUNCH_DATE":"2020-09-03"},{"EPHEMERIS_TYPE":"0","ECCENTRICITY":"0.00010280","FILE":"3904553","OBJECT_ID":"2020-062AV","OBJECT_TYPE":"PAYLOAD","TLE_LINE2":"2 46368  53.0525 324.8368 0001028  82.3781 277.7324 15.06408671148534","PERIAPSIS":"546.475","ELEMENT_SET_NO":"999","CLASSIFICATION_TYPE":"U","INCLINATION":"53.0525","MEAN_ANOMALY":"277.7324","MEAN_MOTION_DOT":"0.00007929","SEMIMAJOR_AXIS":"6925.322","CENTER_NAME":"EARTH","TIME_SYSTEM":"UTC","BSTAR":"0.00055046000000","MEAN_ELEMENT_THEORY":"SGP4","RCS_SIZE":"LARGE","ARG_OF_PERICENTER":"82.3781","SITE":"AFETR","REV_AT_EPOCH":"14853","DECAY_DATE":null,"APOAPSIS":"547.899","MEAN_MOTION_DDOT":"0.0000000000000","REF_FRAME":"TEME","MEAN_MOTION":"15.06408671","NORAD_CAT_ID":"46368","COUNTRY_CODE":"US","RA_OF_ASC_NODE":"324.8368","OBJECT_NAME":"STARLINK-1658","TLE_LINE1":"1 46368U 20062AV  23129.26009515  .00007929  00000-0  55046-3 0  9992","GP_ID":"231504239","EPOCH":"2023-05-09T06:14:32.220960","PERIOD":"95.592","LAUNCH_DATE":"2020-09-03"},{"REF_FRAME":"TEME","MEAN_MOTION":"15.06408639","RA_OF_ASC_NODE":"324.4125","COUNTRY_CODE":"US","NORAD_CAT_ID":"46370","SITE":"AFETR","REV_AT_EPOCH":"14854","DECAY_DATE":null,"ARG_OF_PERICENTER":"83.0617","APOAPSIS":"548.172","MEAN_MOTION_DDOT":"0.0000000000000","EPOCH":"2023-05-09T08:33:54.657504","PERIOD":"95.592","LAUNCH_DATE":"2020-09-03","OBJECT_NAME":"STARLINK-1670","TLE_LINE1":"1 46370U 20062AX  23129.35688261  .00008079  00000-0  56054-3 0  9993","GP_ID":"231503001","OBJECT_TYPE":"PAYLOAD","ELEMENT_SET_NO":"999","INCLINATION":"53.0526","CLASSIFICATION_TYPE":"U","TLE_LINE2":"2 46370  53.0526 324.4125 0001422  83.0617 277.0534 15.06408639148540","PERIAPSIS":"546.202","EPHEMERIS_TYPE":"0","FILE":"3904553","OBJECT_ID":"2020-062AX","ECCENTRICITY":"0.00014220","BSTAR":"0.00056054000000","TIME_SYSTEM":"UTC","MEAN_ELEMENT_THEORY":"SGP4","CENTER_NAME":"EARTH","RCS_SIZE":"LARGE","MEAN_ANOMALY":"277.0534","SEMIMAJOR_AXIS":"6925.322","MEAN_MOTION_DOT":"0.00008079"},{"FILE":"3904553","ECCENTRICITY":"0.00011050","OBJECT_ID":"2020-062AY","EPHEMERIS_TYPE":"0","TLE_LINE2":"2 46371  53.0535 324.4395 0001105  83.8178 276.2937 15.06424005148541","PERIAPSIS":"546.375","ELEMENT_SET_NO":"999","CLASSIFICATION_TYPE":"U","INCLINATION":"53.0535","OBJECT_TYPE":"PAYLOAD","MEAN_MOTION_DOT":"0.00014286","SEMIMAJOR_AXIS":"6925.275","MEAN_ANOMALY":"276.2937","RCS_SIZE":"LARGE","CENTER_NAME":"EARTH","TIME_SYSTEM":"UTC","BSTAR":"0.00097537000000","MEAN_ELEMENT_THEORY":"SGP4","APOAPSIS":"547.905","MEAN_MOTION_DDOT":"0.0000000000000","ARG_OF_PERICENTER":"83.8178","SITE":"AFETR","DECAY_DATE":null,"REV_AT_EPOCH":"14854","NORAD_CAT_ID":"46371","COUNTRY_CODE":"US","RA_OF_ASC_NODE":"324.4395","REF_FRAME":"TEME","MEAN_MOTION":"15.06424005","GP_ID":"231503752","TLE_LINE1":"1 46371U 20062AY  23129.34947383  .00014286  00000-0  97537-3 0  9994","OBJECT_NAME":"STARLINK-1688","LAUNCH_DATE":"2020-09-03","EPOCH":"2023-05-09T08:23:14.538912","PERIOD":"95.591"}];
